LEMUR-2-ANDIS           
1 42838U 17042P   26068.55941107  .00023598  00000+0  79875-3 0  9998
2 42838  97.3659 249.7950 0009101   4.3248 355.8070 15.30557934473198
STARLINK-2753           
1 48696U 21044BL  26068.52463454  .00059459  00000+0  20258-2 0  9999
2 48696  53.1589  89.2579 0001391 119.4639 240.6500 15.29842639264157
