[{"OBJECT_NAME":"LEMUR-2-ANDIS","OBJECT_ID":"2017-042P","EPOCH":"2026-03-09T13:25:33.116448","MEAN_MOTION":15.30557934,"ECCENTRICITY":0.0009101,"INCLINATION":97.3659,"RA_OF_ASC_NODE":249.795,"ARG_OF_PERICENTER":4.3248,"MEAN_ANOMALY":355.807,"EPHEMERIS_TYPE":0,"CLASSIFICATION_TYPE":"U","NORAD_CAT_ID":42838,"ELEMENT_SET_NO":999,"REV_AT_EPOCH":47319,"BSTAR":0.00079875,"MEAN_MOTION_DOT":0.00023598,"MEAN_MOTION_DDOT":0},{"OBJECT_NAME":"STARLINK-2753","OBJECT_ID":"2021-044BL","EPOCH":"2026-03-09T12:35:28.424256","MEAN_MOTION":15.29842639,"ECCENTRICITY":0.00013911,"INCLINATION":53.1589,"RA_OF_ASC_NODE":89.2579,"ARG_OF_PERICENTER":119.4639,"MEAN_ANOMALY":240.65,"EPHEMERIS_TYPE":0,"CLASSIFICATION_TYPE":"U","NORAD_CAT_ID":48696,"ELEMENT_SET_NO":999,"REV_AT_EPOCH":26415,"BSTAR":0.0020258361,"MEAN_MOTION_DOT":0.00059459,"MEAN_MOTION_DDOT":0}]
